{
    "links": {
        "self": "http://www.neowsapp.com/rest/v1/neo/3989250?api_key=iIulBulltgU6a56xZRHN4H3l9WmuAYTsLGpBGhQ2"
    },
    "id": "3989250",
    "neo_reference_id": "3989250",
    "name": "(2020 BZ10)",
    "designation": "2020 BZ10",
    "nasa_jpl_url": "http://ssd.jpl.nasa.gov/sbdb.cgi?sstr=3989250",
    "absolute_magnitude_h": 27.477,
    "estimated_diameter": {
        "kilometers": {
            "estimated_diameter_min": 0.0084948356,
            "estimated_diameter_max": 0.0189950298
        },
        "meters": {
            "estimated_diameter_min": 8.4948355647,
            "estimated_diameter_max": 18.9950297803
        },
        "miles": {
            "estimated_diameter_min": 0.0052784445,
            "estimated_diameter_max": 0.0118029606
        },
        "feet": {
            "estimated_diameter_min": 27.870196314,
            "estimated_diameter_max": 62.3196535043
        }
    },
    "is_potentially_hazardous_asteroid": false,
    "close_approach_data": [
        {
            "close_approach_date": "2020-01-25",
            "close_approach_date_full": "2020-Jan-25 23:38",
            "epoch_date_close_approach": 1579995480000,
            "relative_velocity": {
                "kilometers_per_second": "3.665732906",
                "kilometers_per_hour": "13196.6384614559",
                "miles_per_hour": "8199.8779373418"
            },
            "miss_distance": {
                "astronomical": "0.0421093965",
                "lunar": "16.3805552385",
                "kilometers": "6299476.023385455",
                "miles": "3914312.891831079"
            },
            "orbiting_body": "Earth"
        },
        {
            "close_approach_date": "2141-03-07",
            "close_approach_date_full": "2141-Mar-07 19:44",
            "epoch_date_close_approach": 5401971840000,
            "relative_velocity": {
                "kilometers_per_second": "9.0654161073",
                "kilometers_per_hour": "32635.4979864209",
                "miles_per_hour": "20278.4292905069"
            },
            "miss_distance": {
                "astronomical": "0.0549969446",
                "lunar": "21.3938114494",
                "kilometers": "8227425.768668002",
                "miles": "5112285.3128303476"
            },
            "orbiting_body": "Mars"
        },
        {
            "close_approach_date": "2146-12-27",
            "close_approach_date_full": "2146-Dec-27 07:02",
            "epoch_date_close_approach": 5585180520000,
            "relative_velocity": {
                "kilometers_per_second": "8.8878386003",
                "kilometers_per_hour": "31996.218961005",
                "miles_per_hour": "19881.2061649645"
            },
            "miss_distance": {
                "astronomical": "0.1934163103",
                "lunar": "75.2389447067",
                "kilometers": "28934668.044139061",
                "miles": "17979169.0174826018"
            },
            "orbiting_body": "Earth"
        }
    ],
    "orbital_data": {
        "orbit_id": "1",
        "orbit_determination_date": "2020-01-28 14:12:57",
        "first_observation_date": "2020-01-27",
        "last_observation_date": "2020-01-28",
        "data_arc_in_days": 1,
        "observations_used": 17,
        "orbit_uncertainty": "8",
        "minimum_orbit_intersection": ".0420741",
        "jupiter_tisserand_invariant": "4.483",
        "epoch_osculation": "2458876.5",
        "eccentricity": ".3173409996753487",
        "semi_major_axis": "1.501727480712189",
        "inclination": "2.062491059140419",
        "ascending_node_longitude": "140.8064617347837",
        "orbital_period": "672.1792768352461",
        "perihelion_distance": "1.02516778074304",
        "perihelion_argument": "341.6832283738804",
        "aphelion_distance": "1.978287180681338",
        "perihelion_time": "2458871.954982925386",
        "mean_anomaly": "2.434181182384295",
        "mean_motion": ".5355714054365849",
        "equinox": "J2000",
        "orbit_class": {
            "orbit_class_type": "AMO",
            "orbit_class_description": "Near-Earth asteroid orbits similar to that of 1221 Amor",
            "orbit_class_range": "1.017 AU < q (perihelion) < 1.3 AU"
        }
    },
    "is_sentry_object": false
}